NORAD_CAT_ID,OBJECT_NAME,OBJECT_TYPE,EPOCH,MEAN_MOTION,ECCENTRICITY,INCLINATION,RA_OF_ASC_NODE,ARG_OF_PERICENTER,MEAN_ANOMALY,BSTAR,MEAN_MOTION_DOT,MEAN_MOTION_DDOT,TLE_LINE0,TLE_LINE1,TLE_LINE2,SEMIMAJOR_AXIS,PERIOD,APOGEE,PERIGEE,DECAYED
53157.0,STARLINK-4093,PAYLOAD,2022-11-05 02:38:44,15.08854426,0.0001452,53.2166,243.4964,54.5475,305.5653,9.6493e-05,1.249e-05,0.0,0 STARLINK-4093,1 53157U 22083AB  22309.11023459  .00001249  00000-0  96493-4 0  9998,2 53157  53.2166 243.4964 0001452  54.5475 305.5653 15.08854426 17727,6917.8359999999975,95.437,540.706,538.697,0.0
53157.0,STARLINK-4093,PAYLOAD,2022-11-05 12:11:03,15.08828044,0.0001789,53.217,241.712,52.8013,307.3143,-9.9592e-05,-1.872e-05,0.0,0 STARLINK-4093,1 53157U 22083AB  22309.50768188 -.00001872  00000-0 -99592-4 0  9993,2 53157  53.2170 241.7120 0001789  52.8013 307.3143 15.08828044 17157,6917.917,95.438,541.02,538.544,0.0
53157.0,STARLINK-4093,PAYLOAD,2022-11-06 02:29:33,15.08801513,0.0001611,53.2188,239.0373,70.8701,289.2465,-0.00067355,-0.0001098,0.0,0 STARLINK-4093,1 53157U 22083AB  22310.10386134 -.00010980  00000-0 -67355-3 0  9999,2 53157  53.2188 239.0373 0001611  70.8701 289.2465 15.08801513 17870,6917.998000000001,95.44,540.9780000000002,538.749,0.0
53157.0,STARLINK-4093,PAYLOAD,2022-11-06 18:23:25,15.088290099999998,0.0001457,53.2192,236.0677,72.9446,287.1706,-6.2402e-05,-1.281e-05,0.0,0 STARLINK-4093,1 53157U 22083AB  22310.76626443 -.00001281  00000-0 -62402-4 0  9994,2 53157  53.2192 236.0677 0001457  72.9446 287.1706 15.08829010 17974,6917.9140000000025,95.438,540.7869999999998,538.771,0.0
53157.0,STARLINK-4093,PAYLOAD,2022-11-07 05:31:07,15.08843053,0.0001622,53.2172,233.9839,58.0552,302.0598,0.00097575,0.00015276,0.0,0 STARLINK-4093,1 53157U 22083AB  22311.22995159  .00015276  00000-0  97575-3 0  9994,2 53157  53.2172 233.9839 0001622  58.0552 302.0598 15.08843053 18043,6917.871,95.437,540.8580000000002,538.614,0.0
53157.0,STARLINK-4093,PAYLOAD,2022-11-07 18:14:12,15.08850807,0.0002283,53.2181,231.6091,57.2666,302.8546,0.00057765,8.92e-05,0.0,0 STARLINK-4093,1 53157U 22083AB  22311.75987195  .00008920  00000-0  57765-3 0  9998,2 53157  53.2181 231.6091 0002283  57.2666 302.8546 15.08850807 17493,6917.847,95.437,541.2919999999998,538.133,0.0
53157.0,STARLINK-4093,PAYLOAD,2022-11-08 02:11:08,15.088526000000002,0.0001584,53.2172,230.1171,63.3109,296.8045,0.00057161,8.824e-05,0.0,0 STARLINK-4093,1 53157U 22083AB  22312.09106955  .00008824  00000-0  57161-3 0  9996,2 53157  53.2172 230.1171 0001584  63.3109 296.8045 15.08852600 18174,6917.842,95.437,540.803,538.611,0.0
53157.0,STARLINK-4093,PAYLOAD,2022-11-08 03:46:31,15.08855872,0.000149,53.2172,229.8194,68.4703,291.6448,0.00061219,9.473e-05,0.0,0 STARLINK-4093,1 53157U 22083AB  22312.15730769  .00009473  00000-0  61219-3 0  9999,2 53157  53.2172 229.8194 0001490  68.4703 291.6448 15.08855872 17551,6917.831999999999,95.437,540.7280000000002,538.6659999999998,0.0
53157.0,STARLINK-4093,PAYLOAD,2022-11-09 02:01:54,15.0884946,0.0001401,53.2168,225.658,49.3376,310.7738,-0.00040871,-6.788e-05,0.0,0 STARLINK-4093,1 53157U 22083AB  22313.08465290 -.00006788  00000-0 -40871-3 0  9995,2 53157  53.2168 225.6580 0001401  49.3376 310.7738 15.08849460 18322,6917.851,95.437,540.686,538.747,0.0
53157.0,STARLINK-4093,PAYLOAD,2022-11-09 11:34:12,15.08845602,0.000145,53.2168,223.8747,46.4605,313.6507,0.0013095999999999,0.00020619,0.0,0 STARLINK-4093,1 53157U 22083AB  22313.48209204  .00020619  00000-0  13096-2 0  9995,2 53157  53.2168 223.8747 0001450  46.4605 313.6507 15.08845602 17750,6917.863,95.437,540.731,538.725,0.0
53157.0,STARLINK-4093,PAYLOAD,2022-11-10 00:17:18,15.08841832,0.0001805,53.2162,221.4984,45.2272,314.8867,0.00079084,0.00012321,0.0,0 STARLINK-4093,1 53157U 22083AB  22314.01201611  .00012321  00000-0  79084-3 0  9990,2 53157  53.2162 221.4984 0001805  45.2272 314.8867 15.08841832 18464,6917.875,95.437,540.988,538.491,0.0
53157.0,STARLINK-4093,PAYLOAD,2022-11-10 11:25:00,15.08828564,0.000159,53.2169,219.4158,36.9855,323.1247,0.00087626,0.00013681,0.0,0 STARLINK-4093,1 53157U 22083AB  22314.47570136  .00013681  00000-0  87626-3 0  9992,2 53157  53.2169 219.4158 0001590  36.9855 323.1247 15.08828564 17906,6917.915,95.438,540.88,538.68,0.0
53157.0,STARLINK-4093,PAYLOAD,2022-11-10 17:46:33,15.08812899,0.0001915,53.2191,218.2219,78.4739,281.6468,0.00056104,8.646e-05,0.0,0 STARLINK-4093,1 53157U 22083AB  22314.74067028  .00008646  00000-0  56104-3 0  9995,2 53157  53.2191 218.2219 0001915  78.4739 281.6468 15.08812899 18570,6917.9630000000025,95.439,541.153,538.503,0.0
53157.0,STARLINK-4093,PAYLOAD,2022-11-10 20:57:20,15.08804985,0.000156,53.2181,217.6295,51.9715,308.1418,-0.0002433,-4.154e-05,0.0,0 STARLINK-4093,1 53157U 22083AB  22314.87315281 -.00004154  00000-0 -24330-3 0  9994,2 53157  53.2181 217.6295 0001560  51.9715 308.1418 15.08804985 17961,6917.986999999999,95.44,540.932,538.773,0.0
53157.0,STARLINK-4093,PAYLOAD,2022-11-11 00:08:07,15.08802142,0.0001689,53.2169,217.0337,58.1766,301.939,-0.00020464,-3.54e-05,0.0,0 STARLINK-4093,1 53157U 22083AB  22315.00563714 -.00003540  00000-0 -20464-3 0  9998,2 53157  53.2169 217.0337 0001689  58.1766 301.9390 15.08802142 18611,6917.996,95.44,541.03,538.693,0.0
53157.0,STARLINK-4093,PAYLOAD,2022-11-11 03:18:53,15.08806159,0.0001671,53.217,216.4392,59.3287,300.7869,-0.00015117,-2.691e-05,0.0,0 STARLINK-4093,1 53157U 22083AB  22315.13812043 -.00002691  00000-0 -15117-3 0  9999,2 53157  53.2170 216.4392 0001671  59.3287 300.7869 15.08806159 18002,6917.984,95.44,541.005,538.693,0.0
53157.0,STARLINK-4093,PAYLOAD,2022-11-11 12:51:12,15.08825096,0.0001729,53.2165,214.6572,54.0776,306.0377,0.00030352,4.544e-05,0.0,0 STARLINK-4093,1 53157U 22083AB  22315.53556257  .00004544  00000-0  30352-3 0  9990,2 53157  53.2165 214.6572 0001729  54.0776 306.0377 15.08825096 18694,6917.926,95.438,540.987,538.595,0.0
53157.0,STARLINK-4093,PAYLOAD,2022-11-11 20:48:08,15.08836783,0.0001641999999999,53.2162,213.1699,57.8985,302.2166,0.00086405,0.00013489,0.0,0 STARLINK-4093,1 53157U 22083AB  22315.86676289  .00013489  00000-0  86405-3 0  9992,2 53157  53.2162 213.1699 0001642  57.8985 302.2166 15.08836783 18118,6917.89,95.438,540.891,538.619,0.0
53157.0,STARLINK-4093,PAYLOAD,2022-11-11 23:58:53,15.08850599,0.0001783,53.2162,212.5748,58.7827,301.334,0.00059535,9.202e-05,0.0,0 STARLINK-4093,1 53157U 22083AB  22315.99923550  .00009202  00000-0  59535-3 0  9994,2 53157  53.2162 212.5748 0001783  58.7827 301.3340 15.08850599 18763,6917.848000000001,95.437,540.946,538.48,0.0
53157.0,STARLINK-4093,PAYLOAD,2022-11-12 20:38:53,15.08874092,0.0001715,53.2157,208.7082,57.7379,302.3779,0.00071169,0.00011067,0.0,0 STARLINK-4093,1 53157U 22083AB  22316.86034483  .00011067  00000-0  71169-3 0  9998,2 53157  53.2157 208.7082 0001715  57.7379 302.3779 15.08874092 18267,6917.776,95.435,540.828,538.455,0.0
53157.0,STARLINK-4093,PAYLOAD,2022-11-13 03:00:26,15.08870946,0.0001606,53.2159,207.5198,56.515,303.5995,0.00034812,5.261e-05,0.0,0 STARLINK-4093,1 53157U 22083AB  22317.12530099  .00005261  00000-0  34812-3 0  9995,2 53157  53.2159 207.5198 0001606  56.5150 303.5995 15.08870946 18938,6917.786,95.436,540.762,538.54,0.0
53157.0,STARLINK-4093,PAYLOAD,2022-11-13 09:21:58,15.08876902,0.0001579,53.2159,206.3308,57.7952,302.3193,0.00054883,8.466e-05,0.0,0 STARLINK-4093,1 53157U 22083AB  22317.39025485  .00008466  00000-0  54883-3 0  9992,2 53157  53.2159 206.3308 0001579  57.7952 302.3193 15.08876902 18340,6917.768,95.435,540.725,538.54,0.0
53157.0,STARLINK-4093,PAYLOAD,2022-11-13 17:18:54,15.08833651,0.0001584,53.2157,204.8435,59.0522,301.0625,-0.00053219,-8.746e-05,0.0,0 STARLINK-4093,1 53157U 22083AB  22317.72146490 -.00008746  00000-0 -53219-3 0  9994,2 53157  53.2157 204.8435 0001584  59.0522 301.0625 15.08833651 19022,6917.9,95.438,540.861,538.669,0.0
53157.0,STARLINK-4093,PAYLOAD,2022-11-14 09:12:46,15.08836408,0.0001553,53.216,201.8711,56.1791,303.9349,6.0006e-05,6.67e-06,0.0,0 STARLINK-4093,1 53157U 22083AB  22318.38386890  .00000667  00000-0  60006-4 0  9992,2 53157  53.2160 201.8711 0001553  56.1791 303.9349 15.08836408 19120,6917.891,95.438,540.831,538.682,0.0
53157.0,STARLINK-4093,PAYLOAD,2022-11-15 09:03:33,15.08836137,0.000155,53.2152,197.4082,66.8477,293.2678,0.0002383,3.506e-05,0.0,0 STARLINK-4093,1 53157U 22083AB  22319.37747099  .00003506  00000-0  23830-3 0  9992,2 53157  53.2152 197.4082 0001550  66.8477 293.2678 15.08836137 18649,6917.892,95.438,540.8290000000002,538.685,0.0
53157.0,STARLINK-4093,PAYLOAD,2022-11-15 18:35:52,15.08845445,0.0001567,53.2153,195.6258,61.7665,298.3486,0.0003395,5.12e-05,0.0,0 STARLINK-4093,1 53157U 22083AB  22319.77491082  .00005120  00000-0  33950-3 0  9992,2 53157  53.2153 195.6258 0001567  61.7665 298.3486 15.08845445 19338,6917.864000000001,95.437,540.813,538.645,0.0
53157.0,STARLINK-4093,PAYLOAD,2022-11-15 20:11:15,15.08846516,0.0001646,53.2154,195.3283,61.9016,298.2142,0.00036407,5.512e-05,0.0,0 STARLINK-4093,1 53157U 22083AB  22319.84115070  .00005512  00000-0  36407-3 0  9995,2 53157  53.2154 195.3283 0001646  61.9016 298.2142 15.08846516 18713,6917.86,95.437,540.864,538.587,0.0
53157.0,STARLINK-4093,PAYLOAD,2022-11-16 08:54:20,15.08835382,0.0001537,53.2158,192.9484,64.921,295.1941,0.0002867,4.277e-05,0.0,0 STARLINK-4093,1 53157U 22083AB  22320.37107427  .00004277  00000-0  28670-3 0  9992,2 53157  53.2158 192.9484 0001537  64.9210 295.1941 15.08835382 19422,6917.895,95.438,540.823,538.696,0.0
53157.0,STARLINK-4093,PAYLOAD,2022-11-16 21:37:25,15.08841224,0.0001571999999999,53.2158,190.5696,61.7204,298.3946,0.00033592,5.062e-05,0.0,0 STARLINK-4093,1 53157U 22083AB  22320.90099467  .00005062  00000-0  33592-3 0  9997,2 53157  53.2158 190.5696 0001572  61.7204 298.3946 15.08841224 18878,6917.877,95.437,540.8290000000002,538.654,0.0
